{
    "links": {
        "self": "http://www.neowsapp.com/rest/v1/neo/3550083?api_key=iIulBulltgU6a56xZRHN4H3l9WmuAYTsLGpBGhQ2"
    },
    "id": "3550083",
    "neo_reference_id": "3550083",
    "name": "(2010 UR7)",
    "designation": "2010 UR7",
    "nasa_jpl_url": "http://ssd.jpl.nasa.gov/sbdb.cgi?sstr=3550083",
    "absolute_magnitude_h": 27.4,
    "estimated_diameter": {
        "kilometers": {
            "estimated_diameter_min": 0.0088014652,
            "estimated_diameter_max": 0.0196806745
        },
        "meters": {
            "estimated_diameter_min": 8.801465209,
            "estimated_diameter_max": 19.6806745089
        },
        "miles": {
            "estimated_diameter_min": 0.0054689752,
            "estimated_diameter_max": 0.0122290004
        },
        "feet": {
            "estimated_diameter_min": 28.8761991163,
            "estimated_diameter_max": 64.5691441559
        }
    },
    "is_potentially_hazardous_asteroid": false,
    "close_approach_data": [
        {
            "close_approach_date": "2007-01-13",
            "close_approach_date_full": "2007-Jan-13 18:15",
            "epoch_date_close_approach": 1168712100000,
            "relative_velocity": {
                "kilometers_per_second": "12.7604340412",
                "kilometers_per_hour": "45937.5625484258",
                "miles_per_hour": "28543.814906826"
            },
            "miss_distance": {
                "astronomical": "0.07309101",
                "lunar": "28.43240289",
                "kilometers": "10934259.4121487",
                "miles": "6794233.74590406"
            },
            "orbiting_body": "Mars"
        },
        {
            "close_approach_date": "2010-10-27",
            "close_approach_date_full": "2010-Oct-27 15:31",
            "epoch_date_close_approach": 1288193460000,
            "relative_velocity": {
                "kilometers_per_second": "13.3860482241",
                "kilometers_per_hour": "48189.7736066444",
                "miles_per_hour": "29943.2512724175"
            },
            "miss_distance": {
                "astronomical": "0.0064414263",
                "lunar": "2.5057148307",
                "kilometers": "963623.654241981",
                "miles": "598767.9735060978"
            },
            "orbiting_body": "Earth"
        },
        {
            "close_approach_date": "2010-10-27",
            "close_approach_date_full": "2010-Oct-27 20:56",
            "epoch_date_close_approach": 1288212960000,
            "relative_velocity": {
                "kilometers_per_second": "13.9713172868",
                "kilometers_per_hour": "50296.7422325153",
                "miles_per_hour": "31252.4396388648"
            },
            "miss_distance": {
                "astronomical": "0.0071565645",
                "lunar": "2.7839035905",
                "kilometers": "1070606.805717615",
                "miles": "665244.221288487"
            },
            "orbiting_body": "Moon"
        }
    ],
    "orbital_data": {
        "orbit_id": "11",
        "orbit_determination_date": "2017-04-06 08:56:06",
        "first_observation_date": "2010-10-30",
        "last_observation_date": "2010-11-10",
        "data_arc_in_days": 11,
        "observations_used": 48,
        "orbit_uncertainty": "7",
        "minimum_orbit_intersection": ".00311993",
        "jupiter_tisserand_invariant": "3.314",
        "epoch_osculation": "2459000.5",
        "eccentricity": ".6196627971366347",
        "semi_major_axis": "2.286202323706747",
        "inclination": "3.623457299958693",
        "ascending_node_longitude": "217.0456420443613",
        "orbital_period": "1262.613474070938",
        "perihelion_distance": ".86952779697835",
        "perihelion_argument": "129.5616578463783",
        "aphelion_distance": "3.702876850435144",
        "perihelion_time": "2459257.848027898512",
        "mean_anomaly": "286.6241870960272",
        "mean_motion": ".2851228878773822",
        "equinox": "J2000",
        "orbit_class": {
            "orbit_class_type": "APO",
            "orbit_class_description": "Near-Earth asteroid orbits which cross the Earth’s orbit similar to that of 1862 Apollo",
            "orbit_class_range": "a (semi-major axis) > 1.0 AU; q (perihelion) < 1.017 AU"
        }
    },
    "is_sentry_object": false
}